NORAD_CAT_ID,OBJECT_NAME,OBJECT_TYPE,EPOCH,MEAN_MOTION,ECCENTRICITY,INCLINATION,RA_OF_ASC_NODE,ARG_OF_PERICENTER,MEAN_ANOMALY,BSTAR,MEAN_MOTION_DOT,MEAN_MOTION_DDOT,TLE_LINE0,TLE_LINE1,TLE_LINE2,SEMIMAJOR_AXIS,PERIOD,APOGEE,PERIGEE,DECAYED
55949.0,STARLINK-5899,PAYLOAD,2024-02-19 03:20:03,14.98334947,0.0002504,70.0024,354.5072,258.7242,101.3635,6.3718e-05,6.68e-06,0.0,0 STARLINK-5899,1 55949U 23037AM  24050.13893181  .00000668  00000-0  63718-4 0  9991,2 55949  70.0024 354.5072 0002504 258.7242 101.3635 14.98334947 52530,6950.178,96.107,573.783,570.302,0.0
55949.0,STARLINK-5899,PAYLOAD,2024-02-19 12:56:53,14.98323569,0.000194,70.0049,353.4969,275.1657,84.9281,-6.0539e-05,-8.15e-06,0.0,0 STARLINK-5899,1 55949U 23037AM  24050.53950501 -.00000815  00000-0 -60539-4 0  9999,2 55949  70.0049 353.4969 0001940 275.1657  84.9281 14.98323569 52256,6950.213,96.107,573.426,570.729,0.0
55949.0,STARLINK-5899,PAYLOAD,2024-02-19 22:33:41,14.98322765,0.0002695,70.0019,352.4855,273.4693,86.6157,-6.394e-05,-8.56e-06,0.0,0 STARLINK-5899,1 55949U 23037AM  24050.94006357 -.00000856  00000-0 -63940-4 0  9999,2 55949  70.0019 352.4855 0002695 273.4693  86.6157 14.98322765 52310,6950.215,96.107,573.953,570.207,0.0
55949.0,STARLINK-5899,PAYLOAD,2024-02-20 12:58:53,14.98328564,0.0002699,70.0018,350.972,266.6111,93.4739,-2.3242e-05,-3.7e-06,0.0,0 STARLINK-5899,1 55949U 23037AM  24051.54090011 -.00000370  00000-0 -23242-4 0  9998,2 55949  70.0018 350.9720 0002699 266.6111  93.4739 14.98328564 52401,6950.197,96.107,573.938,570.186,0.0
55949.0,STARLINK-5899,PAYLOAD,2024-02-20 19:23:25,14.98333517,0.0002803,70.0014,350.2983,267.2843,92.7995,-1.6884e-05,-2.94e-06,0.0,0 STARLINK-5899,1 55949U 23037AM  24051.80793700 -.00000294  00000-0 -16884-4 0  9991,2 55949  70.0014 350.2983 0002803 267.2843  92.7995 14.98333517 52788,6950.182,96.107,573.995,570.099,0.0
55949.0,STARLINK-5899,PAYLOAD,2024-02-20 22:35:41,14.98336566,0.0002803,70.0014,349.9616,265.998,94.0859,1.2773e-05,5.9e-07,0.0,0 STARLINK-5899,1 55949U 23037AM  24051.94145373  .00000059  00000-0  12773-4 0  9993,2 55949  70.0014 349.9616 0002803 265.9980  94.0859 14.98336566 52469,6950.173,96.107,573.986,570.089,0.0
55949.0,STARLINK-5899,PAYLOAD,2024-02-21 05:00:13,14.98338484,0.000279,70.0015,349.2886,265.93,94.154,4.3472e-05,4.26e-06,0.0,0 STARLINK-5899,1 55949U 23037AM  24052.20849064  .00000426  00000-0  43472-4 0  9999,2 55949  70.0015 349.2886 0002790 265.9300  94.1540 14.98338484 52844,6950.167,96.106,573.971,570.093,0.0
55949.0,STARLINK-5899,PAYLOAD,2024-02-21 13:00:54,14.98333396,0.0002622,70.0019,348.4466,274.2429,85.843,-3.2149e-05,-4.77e-06,0.0,0 STARLINK-5899,1 55949U 23037AM  24052.54229616 -.00000477  00000-0 -32149-4 0  9998,2 55949  70.0019 348.4466 0002622 274.2429  85.8430 14.98333396 52552,6950.182,96.107,573.87,570.225,0.0
55949.0,STARLINK-5899,PAYLOAD,2024-02-21 22:37:43,14.98319134,0.0002709,70.0021,347.4365,274.742,85.343,4.803e-05,4.8e-06,0.0,0 STARLINK-5899,1 55949U 23037AM  24052.94286394  .00000480  00000-0  48030-4 0  9996,2 55949  70.0021 347.4365 0002709 274.7420  85.3430 14.98319134 52610,6950.226,96.108,573.974,570.209,0.0
55949.0,STARLINK-5899,PAYLOAD,2024-02-22 03:26:07,14.98321434,0.0002715,70.0017,346.9317,272.96,87.1248,-4.7687e-07,-9.9e-07,0.0,0 STARLINK-5899,1 55949U 23037AM  24053.14314453 -.00000099  00000-0 -47687-6 0  9994,2 55949  70.0017 346.9317 0002715 272.9600  87.1248 14.98321434 52986,6950.219,96.108,573.971,570.197,0.0
55949.0,STARLINK-5899,PAYLOAD,2024-02-22 13:02:55,14.98326222,0.0002553,70.0022,345.9225,273.7203,86.3664,1.3942e-05,7.3e-07,0.0,0 STARLINK-5899,1 55949U 23037AM  24053.54370300  .00000073  00000-0  13942-4 0  9996,2 55949  70.0022 345.9225 0002553 273.7203  86.3664 14.98326222 52700,6950.205,96.107,573.844,570.295,0.0
55949.0,STARLINK-5899,PAYLOAD,2024-02-22 22:39:43,14.9833212,0.0002888,70.0015,344.9127,271.6823,88.4005,-4.0017e-07,-9.8e-07,0.0,0 STARLINK-5899,1 55949U 23037AM  24053.94425808 -.00000098  00000-0 -40017-6 0  9998,2 55949  70.0015 344.9127 0002888 271.6823  88.4005 14.98332120 52760,6950.186,96.107,574.059,570.044,0.0
55949.0,STARLINK-5899,PAYLOAD,2024-02-23 03:28:07,14.98337783,0.0002889,70.0014,344.4072,269.8538,90.229,-3.0765e-06,-1.3e-06,0.0,0 STARLINK-5899,1 55949U 23037AM  24054.14453386 -.00000130  00000-0 -30765-5 0  9998,2 55949  70.0014 344.4072 0002889 269.8538  90.2290 14.98337783 53135,6950.169,96.106,574.042,570.026,0.0
55949.0,STARLINK-5899,PAYLOAD,2024-02-23 13:04:56,14.98329799,0.0002699,70.0018,343.3959,267.7222,92.3628,2.6418e-05,2.22e-06,0.0,0 STARLINK-5899,1 55949U 23037AM  24054.54509731  .00000222  00000-0  26418-4 0  9997,2 55949  70.0018 343.3959 0002699 267.7222  92.3628 14.98329799 52851,6950.194,96.107,573.934,570.183,0.0
55949.0,STARLINK-5899,PAYLOAD,2024-02-23 19:29:28,14.98324359,0.0002964,70.0017,342.7227,271.5115,88.5705,9.9395e-05,1.093e-05,0.0,0 STARLINK-5899,1 55949U 23037AM  24054.81213790  .00001093  00000-0  99395-4 0  9995,2 55949  70.0017 342.7227 0002964 271.5115  88.5705 14.98324359 53233,6950.21,96.107,574.135,570.015,0.0
55949.0,STARLINK-5899,PAYLOAD,2024-02-23 22:41:44,14.98322863,0.0003012,70.0016,342.3863,271.5885,88.4929,9.0569e-05,9.88e-06,0.0,0 STARLINK-5899,1 55949U 23037AM  24054.94565941  .00000988  00000-0  90569-4 0  9993,2 55949  70.0016 342.3863 0003012 271.5885  88.4929 14.98322863 52912,6950.215,96.107,574.173,569.987,0.0
55949.0,STARLINK-5899,PAYLOAD,2024-02-24 05:06:17,14.98305938,0.0002943,70.0017,341.713,275.2182,84.8641,0.00043886,5.144e-05,0.0,0 STARLINK-5899,1 55949U 23037AM  24055.21270284  .00005144  00000-0  43886-3 0  9995,2 55949  70.0017 341.7130 0002943 275.2182  84.8641 14.98305938 53293,6950.267,96.109,574.178,570.087,0.0
55949.0,STARLINK-5899,PAYLOAD,2024-02-24 17:55:21,14.98337045,0.0002563,70.0022,340.3669,276.4685,83.6182,-0.00010677,-1.367e-05,0.0,0 STARLINK-5899,1 55949U 23037AM  24055.74677839 -.00001367  00000-0 -10677-3 0  9997,2 55949  70.0022 340.3669 0002563 276.4685  83.6182 14.98337045 53370,6950.171,96.107,573.817,570.255,0.0
55949.0,STARLINK-5899,PAYLOAD,2024-02-25 05:08:18,14.98301452,0.0002342,70.0022,339.1884,273.7983,86.2908,0.0006639,7.831e-05,0.0,0 STARLINK-5899,1 55949U 23037AM  24056.21409996  .00007831  00000-0  66390-3 0  9990,2 55949  70.0022 339.1884 0002342 273.7983  86.2908 14.98301452 53447,6950.281,96.109,573.774,570.518,0.0
55949.0,STARLINK-5899,PAYLOAD,2024-02-25 11:32:50,14.98333755,0.0002483,70.0023,338.5148,277.0637,83.024,-8.9403e-06,-2e-06,0.0,0 STARLINK-5899,1 55949U 23037AM  24056.48113520 -.00000200  00000-0 -89403-5 0  9991,2 55949  70.0023 338.5148 0002483 277.0637  83.0240 14.98333755 53482,6950.181,96.107,573.772,570.321,0.0
55949.0,STARLINK-5899,PAYLOAD,2024-02-25 19:33:30,14.98351539,0.0002342,70.0025,337.6725,279.8518,80.2377,-0.00027717,-3.4e-05,0.0,0 STARLINK-5899,1 55949U 23037AM  24056.81493106 -.00003400  00000-0 -27717-3 0  9992,2 55949  70.0025 337.6725 0002342 279.8518  80.2377 14.98351539 53533,6950.126,96.106,573.619,570.364,0.0
55949.0,STARLINK-5899,PAYLOAD,2024-02-25 22:45:46,14.98329549,0.0002655,70.0017,337.3366,274.3356,85.75,1.1089e-05,3.9e-07,0.0,0 STARLINK-5899,1 55949U 23037AM  24056.94845610  .00000039  00000-0  11089-4 0  9996,2 55949  70.0017 337.3366 0002655 274.3356  85.7500 14.98329549 53218,6950.194,96.107,573.905,570.214,0.0
55949.0,STARLINK-5899,PAYLOAD,2024-02-26 03:34:10,14.98327268,0.0002549,70.0019,336.8311,274.4293,85.6575,2.7307e-05,2.33e-06,0.0,0 STARLINK-5899,1 55949U 23037AM  24057.14873735  .00000233  00000-0  27307-4 0  9994,2 55949  70.0019 336.8311 0002549 274.4293  85.6575 14.98327268 53584,6950.201,96.107,573.838,570.295,0.0
55949.0,STARLINK-5899,PAYLOAD,2024-02-26 22:47:48,14.98327509,0.0003138,70.0005,334.8112,261.0149,99.0655,-0.00015628,-1.957e-05,0.0,0 STARLINK-5899,1 55949U 23037AM  24057.94986127 -.00001957  00000-0 -15628-3 0  9990,2 55949  70.0005 334.8112 0003138 261.0149  99.0655 14.98327509 53365,6950.201,96.107,574.247,569.885,0.0
55949.0,STARLINK-5899,PAYLOAD,2024-02-27 03:36:12,14.98323372,0.0003071,70.0011,334.3081,255.0687,105.0132,-0.0001798,-2.237e-05,0.0,0 STARLINK-5899,1 55949U 23037AM  24058.15014503 -.00002237  00000-0 -17980-3 0  9999,2 55949  70.0011 334.3081 0003071 255.0687 105.0132 14.98323372 53731,6950.213,96.107,574.213,569.944,0.0
55949.0,STARLINK-5899,PAYLOAD,2024-02-27 11:36:52,14.98334135,0.0003188,69.9999,333.4646,271.6354,88.444,-9.7307e-05,-1.254e-05,0.0,0 STARLINK-5899,1 55949U 23037AM  24058.48393694 -.00001254  00000-0 -97307-4 0  9996,2 55949  69.9999 333.4646 0003188 271.6354  88.4440 14.98334135 53784,6950.18,96.107,574.261,569.829,0.0
55949.0,STARLINK-5899,PAYLOAD,2024-02-27 22:49:48,14.98330521,0.0003246,69.9998,332.2868,271.6584,88.4203,0.00010029,1.104e-05,0.0,0 STARLINK-5899,1 55949U 23037AM  24058.95125380  .00001104  00000-0  10029-3 0  9990,2 55949  69.9998 332.2868 0003246 271.6584  88.4203 14.98330521 53519,6950.191,96.107,574.312,569.8,0.0
55949.0,STARLINK-5899,PAYLOAD,2024-02-28 03:38:11,14.98341512,0.0003208,70.0,331.7818,269.9917,90.0874,0.00012094,1.351e-05,0.0,0 STARLINK-5899,1 55949U 23037AM  24059.15152551  .00001351  00000-0  12094-3 0  9991,2 55949  70.0000 331.7818 0003208 269.9917  90.0874 14.98341512 53888,6950.157,96.106,574.252,569.793,0.0
55949.0,STARLINK-5899,PAYLOAD,2024-02-28 11:38:52,14.98335658,0.0003128,70.0001,330.9396,269.6284,90.4517,2.2177e-05,1.72e-06,0.0,0 STARLINK-5899,1 55949U 23037AM  24059.48532996  .00000172  00000-0  22177-4 0  9996,2 55949  70.0001 330.9396 0003128 269.6284  90.4517 14.98335658 53934,6950.175,96.107,574.214,569.866,0.0
55949.0,STARLINK-5899,PAYLOAD,2024-02-28 19:39:33,14.98321917,0.0002773,70.0001,330.0971,263.9594,96.125,8.4401e-05,9.14e-06,0.0,0 STARLINK-5899,1 55949U 23037AM  24059.81913770  .00000914  00000-0  84401-4 0  9998,2 55949  70.0001 330.0971 0002773 263.9594  96.1250 14.98321917 53985,6950.218,96.108,574.01,570.156,0.0
